{
  "type": "FeatureCollection",
  "features": [
    {
      "type": "Feature",
      "properties": {
        "id": "10",
        "name": "主通道-G312",
        "corridorType": null,
        "remark": "",
        "createdAt": 1785511358,
        "updatedAt": 1785571714
      },
      "geometry": {
        "type": "LineString",
        "coordinates": [
          [
            111.012529585,
            33.470827615
          ],
          [
            111.182331172,
            33.404658842
          ],
          [
            111.408537009,
            33.347434353
          ],
          [
            111.523407714,
            33.317358477
          ],
          [
            111.73445894,
            33.160668078
          ],
          [
            111.960958326,
            33.047283861
          ],
          [
            112.026210625,
            33.035264349
          ],
          [
            112.067471085,
            33.03584638
          ],
          [
            112.100170926,
            33.029664624
          ],
          [
            112.160887173,
            33.017992401
          ],
          [
            112.18703979,
            33.012001325
          ],
          [
            112.213192407,
            33.006009841
          ],
          [
            112.256266041,
            33.012846095
          ],
          [
            112.274976594,
            33.016629289
          ],
          [
            112.290359695,
            33.025252762
          ],
          [
            112.300842095,
            33.036043419
          ],
          [
            112.319153899,
            33.041695288
          ],
          [
            112.342239409,
            33.041189999
          ],
          [
            112.357115678,
            33.041410029
          ],
          [
            112.372588152,
            33.038962833
          ],
          [
            112.393561014,
            33.027950317
          ],
          [
            112.403209411,
            33.013434777
          ],
          [
            112.42495562,
            33.006503734
          ],
          [
            112.433583397,
            33.003363303
          ],
          [
            112.442211175,
            33.00022276
          ],
          [
            112.45946673,
            32.993941302
          ],
          [
            112.509920644,
            32.953632084
          ],
          [
            112.602181432,
            32.949989943
          ],
          [
            112.707615317,
            32.806067758
          ],
          [
            112.809747225,
            32.716975671
          ],
          [
            112.989929017,
            32.58950277
          ],
          [
            113.502601796,
            32.33091326
          ],
          [
            113.817453156,
            32.305534671
          ],
          [
            114.263157727,
            32.226290925
          ],
          [
            114.544966701,
            32.22331775
          ],
          [
            114.863086004,
            32.111222399
          ],
          [
            115.023433344,
            32.139335746
          ],
          [
            115.184863065,
            32.127897076
          ],
          [
            115.310099284,
            32.168108177
          ],
          [
            115.421291847,
            32.182930459
          ],
          [
            115.550906109,
            32.168824008
          ],
          [
            115.66350503,
            32.151032348
          ],
          [
            115.727833042,
            32.137673436
          ],
          [
            115.793208893,
            32.074422206
          ],
          [
            115.822361852,
            32.044653753
          ],
          [
            115.855012891,
            31.983706391
          ],
          [
            115.89393641,
            31.881319567
          ]
        ]
      }
    },
    {
      "type": "Feature",
      "properties": {
        "id": "11",
        "name": "主通道-G240-G311-G234",
        "corridorType": null,
        "remark": "",
        "createdAt": 1785511767,
        "updatedAt": 1785571720
      },
      "geometry": {
        "type": "LineString",
        "coordinates": [
          [
            114.987671042,
            34.993418972
          ],
          [
            114.943736109,
            34.957652346
          ],
          [
            114.890063874,
            34.916186905
          ],
          [
            114.820733882,
            34.881874749
          ],
          [
            114.792479825,
            34.862322752
          ],
          [
            114.779561241,
            34.834669424
          ],
          [
            114.698347165,
            34.83285921
          ],
          [
            114.593845117,
            34.822002426
          ],
          [
            114.563999588,
            34.808741455
          ],
          [
            114.557991829,
            34.786865107
          ],
          [
            114.572359224,
            34.750199383
          ],
          [
            114.56139362,
            34.717297993
          ],
          [
            114.542844715,
            34.688763796
          ],
          [
            114.52158439,
            34.66249999
          ],
          [
            114.504226424,
            34.631850128
          ],
          [
            114.466077052,
            34.552534817
          ],
          [
            114.461021111,
            34.528844611
          ],
          [
            114.455222678,
            34.521053279
          ],
          [
            114.444804207,
            34.515127873
          ],
          [
            114.432726817,
            34.478483001
          ],
          [
            114.309877003,
            34.440927742
          ],
          [
            114.236990992,
            34.426524935
          ],
          [
            114.166248769,
            34.424572948
          ],
          [
            114.090496198,
            34.359462249
          ],
          [
            114.059787272,
            34.342958497
          ],
          [
            114.031217318,
            34.320162521
          ],
          [
            113.979907413,
            34.275712446
          ],
          [
            113.931681609,
            34.215038696
          ],
          [
            113.89068689,
            34.156076201
          ],
          [
            113.836889716,
            34.105412566
          ],
          [
            113.731045706,
            34.007812174
          ],
          [
            113.633611672,
            33.969784426
          ],
          [
            113.568243864,
            33.907878854
          ],
          [
            113.456531829,
            33.765769757
          ],
          [
            113.413418109,
            33.693737744
          ],
          [
            113.388484551,
            33.640924814
          ],
          [
            113.354087185,
            33.573497701
          ],
          [
            113.329636601,
            33.541325184
          ],
          [
            113.301868945,
            33.49953348
          ],
          [
            113.170839485,
            33.324556824
          ],
          [
            113.083633401,
            33.288888628
          ],
          [
            112.994419942,
            33.233713611
          ],
          [
            112.906040961,
            33.178027819
          ],
          [
            112.810224563,
            33.129032713
          ],
          [
            112.692728193,
            33.051599786
          ],
          [
            112.632656714,
            33.01901392
          ],
          [
            112.602776618,
            32.986097531
          ],
          [
            112.592034764,
            32.958685082
          ]
        ]
      }
    },
    {
      "type": "Feature",
      "properties": {
        "id": "12",
        "name": "主通道-G310",
        "corridorType": null,
        "remark": "",
        "createdAt": 1785512321,
        "updatedAt": 1785571727
      },
      "geometry": {
        "type": "LineString",
        "coordinates": [
          [
            110.370109392,
            34.530504673
          ],
          [
            110.434208029,
            34.564056882
          ],
          [
            110.558942888,
            34.570288698
          ],
          [
            110.709720051,
            34.572786746
          ],
          [
            110.821663212,
            34.580780383
          ],
          [
            110.988081696,
            34.604078195
          ],
          [
            111.120617979,
            34.682092559
          ],
          [
            111.270426554,
            34.68237606
          ],
          [
            111.394273495,
            34.688223943
          ],
          [
            111.419298233,
            34.677393304
          ],
          [
            111.444322972,
            34.666561249
          ],
          [
            111.626234678,
            34.656798072
          ],
          [
            111.667660873,
            34.682176793
          ],
          [
            111.807288404,
            34.666704182
          ],
          [
            111.867174668,
            34.669252994
          ],
          [
            111.927060932,
            34.671801728
          ],
          [
            112.009524413,
            34.700827622
          ],
          [
            112.100710811,
            34.774584877
          ],
          [
            112.190167141,
            34.766957109
          ],
          [
            112.234620991,
            34.752163522
          ],
          [
            112.281811139,
            34.743039128
          ],
          [
            112.368295682,
            34.753285216
          ],
          [
            112.46005821,
            34.75682359
          ],
          [
            112.658666137,
            34.781231698
          ],
          [
            112.751793755,
            34.768102675
          ],
          [
            112.855120063,
            34.757633584
          ],
          [
            112.915106725,
            34.750485755
          ],
          [
            113.022936019,
            34.739306862
          ],
          [
            113.040730192,
            34.735599588
          ],
          [
            113.058347603,
            34.729400249
          ],
          [
            113.106305464,
            34.711563864
          ],
          [
            113.137436551,
            34.708969163
          ],
          [
            113.164262526,
            34.707713107
          ],
          [
            113.208035465,
            34.709550233
          ],
          [
            113.238988086,
            34.742029357
          ],
          [
            113.243749491,
            34.752084302
          ],
          [
            113.251475517,
            34.762151056
          ],
          [
            113.253562528,
            34.773989517
          ],
          [
            113.26213662,
            34.779553806
          ],
          [
            113.304219547,
            34.775212808
          ],
          [
            113.341100176,
            34.765093444
          ],
          [
            113.362652934,
            34.749733719
          ],
          [
            113.426361534,
            34.713295878
          ],
          [
            113.5030819,
            34.676336127
          ],
          [
            113.568336928,
            34.649297587
          ],
          [
            113.646392938,
            34.635921948
          ],
          [
            113.715615186,
            34.635900957
          ],
          [
            113.751928699,
            34.632011553
          ],
          [
            113.784991553,
            34.638127266
          ],
          [
            113.825323529,
            34.646718951
          ],
          [
            113.910984022,
            34.652099953
          ],
          [
            113.967153965,
            34.667912472
          ],
          [
            114.009788941,
            34.673447257
          ],
          [
            114.03606845,
            34.682503783
          ],
          [
            114.122472411,
            34.702193571
          ],
          [
            114.13869414,
            34.734708093
          ],
          [
            114.160443704,
            34.744514491
          ],
          [
            114.241540345,
            34.749914542
          ],
          [
            114.280905599,
            34.755918595
          ],
          [
            114.320666923,
            34.744886434
          ],
          [
            114.359841858,
            34.735563379
          ],
          [
            114.577312119,
            34.733872624
          ],
          [
            114.962537639,
            34.712595668
          ],
          [
            115.179410633,
            34.630769547
          ],
          [
            115.593577281,
            34.469603007
          ],
          [
            115.903130205,
            34.352439027
          ],
          [
            115.99776981,
            34.301144453
          ],
          [
            116.087389373,
            34.309068291
          ],
          [
            116.108869153,
            34.248525816
          ],
          [
            116.127641013,
            34.208353456
          ],
          [
            116.191965611,
            34.175818264
          ],
          [
            116.243581399,
            34.088725751
          ],
          [
            116.350752994,
            33.966318835
          ],
          [
            116.508034429,
            33.871514781
          ]
        ]
      }
    },
    {
      "type": "Feature",
      "properties": {
        "id": "14",
        "name": "次通道",
        "corridorType": null,
        "remark": "",
        "createdAt": 1785512848,
        "updatedAt": 1785571763
      },
      "geometry": {
        "type": "LineString",
        "coordinates": [
          [
            114.984349357,
            34.988708589
          ],
          [
            114.962722313,
            35.151542774
          ],
          [
            115.069845985,
            35.295064651
          ],
          [
            115.11405384,
            35.433984793
          ],
          [
            115.113089987,
            35.545244106
          ],
          [
            115.11461258,
            35.671710562
          ]
        ]
      }
    },
    {
      "type": "Feature",
      "properties": {
        "id": "15",
        "name": "次通道",
        "corridorType": null,
        "remark": "",
        "createdAt": 1785512962,
        "updatedAt": 1785571784
      },
      "geometry": {
        "type": "LineString",
        "coordinates": [
          [
            115.451017397,
            36.079319544
          ],
          [
            115.248280416,
            36.037587611
          ],
          [
            115.068249649,
            36.046900107
          ],
          [
            114.931827929,
            36.023724534
          ],
          [
            114.625416998,
            36.048896682
          ],
          [
            114.531298661,
            36.045918922
          ],
          [
            114.449348414,
            36.025700831
          ],
          [
            114.324960308,
            36.027228224
          ],
          [
            114.18144554,
            36.09282824
          ],
          [
            114.031061468,
            36.076932193
          ],
          [
            113.928009557,
            36.045983795
          ],
          [
            113.737252793,
            36.052925791
          ],
          [
            113.681417529,
            36.062118832
          ]
        ]
      }
    },
    {
      "type": "Feature",
      "properties": {
        "id": "16",
        "name": "未命名线条",
        "corridorType": null,
        "remark": "",
        "createdAt": 1785512997,
        "updatedAt": 1785512997
      },
      "geometry": {
        "type": "LineString",
        "coordinates": [
          [
            115.217038056,
            36.194871036
          ],
          [
            115.205963468,
            36.130823554
          ],
          [
            115.191541002,
            36.040275761
          ]
        ]
      }
    },
    {
      "type": "Feature",
      "properties": {
        "id": "17",
        "name": "未命名线条",
        "corridorType": null,
        "remark": "",
        "createdAt": 1785514637,
        "updatedAt": 1785514955
      },
      "geometry": {
        "type": "LineString",
        "coordinates": [
          [
            115.741843167,
            35.921949458
          ],
          [
            115.496028037,
            35.789963623
          ],
          [
            115.326747047,
            35.774890774
          ],
          [
            115.261585766,
            35.774030222
          ]
        ]
      }
    },
    {
      "type": "Feature",
      "properties": {
        "id": "18",
        "name": "次通道",
        "corridorType": null,
        "remark": "",
        "createdAt": 1785514922,
        "updatedAt": 1785514922
      },
      "geometry": {
        "type": "LineString",
        "coordinates": [
          [
            115.355406269,
            36.058075947
          ],
          [
            115.315328706,
            35.901823987
          ],
          [
            115.219309624,
            35.676984894
          ],
          [
            115.114136336,
            35.671565532
          ],
          [
            114.895786566,
            35.682851025
          ],
          [
            114.726839162,
            35.621886429
          ],
          [
            114.676658356,
            35.514115331
          ],
          [
            114.450885688,
            35.514554003
          ],
          [
            114.359435814,
            35.45808593
          ],
          [
            114.109126762,
            35.39805327
          ],
          [
            113.95769083,
            35.331665074
          ]
        ]
      }
    },
    {
      "type": "Feature",
      "properties": {
        "id": "19",
        "name": "主通道",
        "corridorType": null,
        "remark": "",
        "createdAt": 1785515080,
        "updatedAt": 1785515080
      },
      "geometry": {
        "type": "LineString",
        "coordinates": [
          [
            114.596334097,
            36.08851448
          ],
          [
            114.46748915,
            36.09486101
          ],
          [
            114.394187706,
            36.124575387
          ],
          [
            114.337976908,
            36.151350542
          ],
          [
            114.341906045,
            36.243663869
          ]
        ]
      }
    },
    {
      "type": "Feature",
      "properties": {
        "id": "20",
        "name": "次通道",
        "corridorType": null,
        "remark": "",
        "createdAt": 1785515552,
        "updatedAt": 1785553948
      },
      "geometry": {
        "type": "LineString",
        "coordinates": [
          [
            112.677783081,
            35.183141044
          ],
          [
            112.618709098,
            35.014477562
          ],
          [
            112.497423907,
            34.940282679
          ],
          [
            112.482667882,
            34.921631667
          ],
          [
            112.435001246,
            34.829379121
          ],
          [
            112.442408074,
            34.632027412
          ],
          [
            112.48680114,
            34.498928519
          ],
          [
            112.529721727,
            34.416884482
          ],
          [
            112.563013606,
            34.366743438
          ],
          [
            112.635678964,
            34.303590783
          ],
          [
            112.758279946,
            34.234238005
          ],
          [
            112.814299365,
            34.19897147
          ],
          [
            112.868062728,
            34.160925898
          ],
          [
            112.932858011,
            34.096947547
          ],
          [
            113.053259105,
            33.970362333
          ],
          [
            113.202412711,
            33.90790364
          ],
          [
            113.246504739,
            33.904829993
          ],
          [
            113.287276075,
            33.894376885
          ],
          [
            113.317675597,
            33.880730227
          ],
          [
            113.327187041,
            33.853762193
          ],
          [
            113.375105555,
            33.831053882
          ],
          [
            113.415479804,
            33.825224584
          ],
          [
            113.474116621,
            33.826774185
          ],
          [
            113.561227305,
            33.814590913
          ],
          [
            113.635719717,
            33.780743166
          ],
          [
            113.708914737,
            33.738080488
          ],
          [
            113.765927162,
            33.677387303
          ],
          [
            113.869920308,
            33.606880097
          ],
          [
            113.924872574,
            33.600861816
          ],
          [
            113.983337199,
            33.595567024
          ],
          [
            113.984945955,
            33.610446081
          ],
          [
            114.032453481,
            33.607793285
          ],
          [
            114.108618252,
            33.604292364
          ],
          [
            114.18402107,
            33.599775034
          ],
          [
            114.219272859,
            33.590051209
          ],
          [
            114.287294638,
            33.596130425
          ],
          [
            114.339034482,
            33.593942253
          ],
          [
            114.396519546,
            33.595519858
          ],
          [
            114.48495073,
            33.600294906
          ],
          [
            114.573766233,
            33.600988152
          ],
          [
            114.600149779,
            33.614914859
          ],
          [
            114.623693609,
            33.648765103
          ],
          [
            114.710781296,
            33.651304373
          ],
          [
            114.772050883,
            33.677477448
          ],
          [
            114.7987184,
            33.683131461
          ],
          [
            114.821383633,
            33.696266151
          ],
          [
            114.825341748,
            33.703970295
          ],
          [
            114.826410181,
            33.715126906
          ],
          [
            114.826817402,
            33.734691303
          ],
          [
            114.842420095,
            33.758778808
          ],
          [
            114.865965121,
            33.770562685
          ],
          [
            114.923177308,
            33.77213359
          ],
          [
            114.94547397,
            33.804270112
          ],
          [
            115.050963104,
            33.906006413
          ],
          [
            115.105645337,
            33.949928064
          ],
          [
            115.143500325,
            34.005673238
          ],
          [
            115.199253092,
            34.045083605
          ],
          [
            115.279653809,
            34.069630163
          ],
          [
            115.280456491,
            34.084727687
          ],
          [
            115.303206478,
            34.094215498
          ],
          [
            115.311332214,
            34.122032357
          ],
          [
            115.378740463,
            34.124339096
          ],
          [
            115.414796621,
            34.166218951
          ],
          [
            115.477458655,
            34.245425122
          ],
          [
            115.533088024,
            34.321053905
          ],
          [
            115.586744828,
            34.463448603
          ]
        ]
      }
    },
    {
      "type": "Feature",
      "properties": {
        "id": "21",
        "name": "次通道",
        "corridorType": null,
        "remark": "",
        "createdAt": 1785515818,
        "updatedAt": 1785515888
      },
      "geometry": {
        "type": "LineString",
        "coordinates": [
          [
            112.057021094,
            35.136787862
          ],
          [
            112.087392936,
            35.14002703
          ],
          [
            112.129582435,
            35.163030169
          ],
          [
            112.163470162,
            35.146679131
          ],
          [
            112.204635322,
            35.134333749
          ],
          [
            112.243468954,
            35.147190525
          ],
          [
            112.300637026,
            35.101973647
          ],
          [
            112.650718784,
            35.079349324
          ],
          [
            112.792479369,
            35.185731726
          ],
          [
            112.957908295,
            35.198434731
          ],
          [
            113.082897334,
            35.154614994
          ],
          [
            113.258851463,
            35.135741403
          ],
          [
            113.538212782,
            35.243435991
          ],
          [
            113.779309874,
            35.2911302
          ],
          [
            113.811961983,
            35.324686715
          ],
          [
            113.882266343,
            35.336410895
          ],
          [
            113.956787528,
            35.329865662
          ],
          [
            114.00976267,
            35.295154348
          ],
          [
            114.170437447,
            35.269344631
          ],
          [
            114.478807561,
            35.19261238
          ],
          [
            114.662493663,
            35.136007044
          ],
          [
            114.717982479,
            35.132401676
          ],
          [
            114.849583861,
            35.27896999
          ],
          [
            114.957357829,
            35.30562572
          ],
          [
            115.052577569,
            35.274659301
          ]
        ]
      }
    },
    {
      "type": "Feature",
      "properties": {
        "id": "22",
        "name": "支线通道",
        "corridorType": null,
        "remark": "",
        "createdAt": 1785516592,
        "updatedAt": 1785516592
      },
      "geometry": {
        "type": "LineString",
        "coordinates": [
          [
            114.624075027,
            35.144594492
          ],
          [
            114.461380626,
            35.055952147
          ],
          [
            114.338990315,
            35.039306681
          ],
          [
            114.220982643,
            35.049252228
          ],
          [
            114.077230649,
            35.032111659
          ],
          [
            113.981690984,
            35.047764897
          ],
          [
            113.79898704,
            35.007693171
          ],
          [
            113.678560097,
            34.997142005
          ],
          [
            113.545488609,
            35.042734647
          ],
          [
            113.405918425,
            35.076331764
          ],
          [
            113.263620161,
            35.135949499
          ]
        ]
      }
    },
    {
      "type": "Feature",
      "properties": {
        "id": "23",
        "name": "支线通道",
        "corridorType": null,
        "remark": "",
        "createdAt": 1785516682,
        "updatedAt": 1785516682
      },
      "geometry": {
        "type": "LineString",
        "coordinates": [
          [
            113.699050411,
            35.000406688
          ],
          [
            113.853849565,
            35.144124322
          ],
          [
            113.951238798,
            35.274179991
          ],
          [
            114.036289063,
            35.437404566
          ],
          [
            114.181262009,
            35.586028058
          ],
          [
            114.304757481,
            35.745507829
          ],
          [
            114.386845337,
            35.89355939
          ],
          [
            114.42536965,
            36.11020362
          ]
        ]
      }
    },
    {
      "type": "Feature",
      "properties": {
        "id": "24",
        "name": "未命名线条",
        "corridorType": null,
        "remark": "",
        "createdAt": 1785520606,
        "updatedAt": 1785520606
      },
      "geometry": {
        "type": "LineString",
        "coordinates": [
          [
            114.378914681,
            35.480836101
          ],
          [
            114.398418922,
            35.56396823
          ],
          [
            114.480078922,
            35.620436928
          ],
          [
            114.585932402,
            35.658657649
          ],
          [
            114.65839452,
            35.726581792
          ],
          [
            114.704726435,
            35.785557494
          ],
          [
            114.800908749,
            35.807630546
          ],
          [
            114.867834702,
            35.826996239
          ],
          [
            114.90229095,
            35.913747978
          ],
          [
            114.941660623,
            35.97680796
          ],
          [
            114.980768744,
            36.030249504
          ]
        ]
      }
    },
    {
      "type": "Feature",
      "properties": {
        "id": "25",
        "name": "未命名线条",
        "corridorType": null,
        "remark": "",
        "createdAt": 1785520617,
        "updatedAt": 1785553408
      },
      "geometry": {
        "type": "LineString",
        "coordinates": [
          [
            114.489557534,
            35.626183414
          ],
          [
            114.487008163,
            35.681461801
          ],
          [
            114.398570928,
            35.691219364
          ]
        ]
      }
    },
    {
      "type": "Feature",
      "properties": {
        "id": "26",
        "name": "未命名线条",
        "corridorType": null,
        "remark": "",
        "createdAt": 1785520640,
        "updatedAt": 1785569897
      },
      "geometry": {
        "type": "LineString",
        "coordinates": [
          [
            114.486293062,
            35.514044311
          ],
          [
            114.483885172,
            35.49459243
          ],
          [
            114.486534402,
            35.4726048
          ],
          [
            114.49685402,
            35.418255561
          ],
          [
            114.50198884,
            35.394114675
          ],
          [
            114.504807998,
            35.369771406
          ],
          [
            114.503039702,
            35.351304542
          ],
          [
            114.505269694,
            35.340839814
          ],
          [
            114.506508614,
            35.326301072
          ],
          [
            114.508667316,
            35.312100601
          ],
          [
            114.506259917,
            35.308332856
          ],
          [
            114.493019912,
            35.300272975
          ],
          [
            114.479253343,
            35.293040227
          ],
          [
            114.460701013,
            35.285033891
          ],
          [
            114.446183727,
            35.279367607
          ],
          [
            114.431967151,
            35.275627075
          ],
          [
            114.417505443,
            35.277539639
          ],
          [
            114.407333019,
            35.276820865
          ],
          [
            114.394694882,
            35.271342837
          ],
          [
            114.380043765,
            35.270098017
          ],
          [
            114.357871485,
            35.265137301
          ],
          [
            114.330802897,
            35.264533476
          ],
          [
            114.297053574,
            35.253159952
          ],
          [
            114.262216214,
            35.215069538
          ],
          [
            114.227006926,
            35.175217132
          ],
          [
            114.211149588,
            35.157184046
          ],
          [
            114.198345805,
            35.135751853
          ],
          [
            114.202163042,
            35.099627529
          ],
          [
            114.202528605,
            35.056648766
          ],
          [
            114.231727826,
            35.051633398
          ],
          [
            114.255933985,
            35.052068215
          ],
          [
            114.281124745,
            35.048727263
          ],
          [
            114.300557224,
            35.041780054
          ],
          [
            114.298032356,
            35.024943217
          ],
          [
            114.287936073,
            35.013180926
          ],
          [
            114.277950571,
            35.00433197
          ],
          [
            114.265706397,
            34.989654881
          ],
          [
            114.259720617,
            34.978104548
          ],
          [
            114.257390592,
            34.956848879
          ],
          [
            114.247575646,
            34.940365001
          ],
          [
            114.2194135,
            34.895653669
          ],
          [
            114.202258947,
            34.850095876
          ],
          [
            114.200256045,
            34.699876725
          ],
          [
            114.195778539,
            34.6195588
          ],
          [
            114.11053778,
            34.479682821
          ],
          [
            114.126850334,
            34.390206357
          ],
          [
            114.167135436,
            34.272282891
          ],
          [
            114.14844489,
            34.100236453
          ]
        ]
      }
    },
    {
      "type": "Feature",
      "properties": {
        "id": "27",
        "name": "未命名线条",
        "corridorType": null,
        "remark": "",
        "createdAt": 1785520662,
        "updatedAt": 1785520662
      },
      "geometry": {
        "type": "LineString",
        "coordinates": [
          [
            113.291868093,
            35.132187149
          ],
          [
            113.317151369,
            35.01948403
          ],
          [
            113.350748235,
            34.910312531
          ],
          [
            113.386487329,
            34.857251287
          ],
          [
            113.374350111,
            34.76423114
          ],
          [
            113.318670857,
            34.505877233
          ],
          [
            113.296987023,
            34.399879166
          ]
        ]
      }
    },
    {
      "type": "Feature",
      "properties": {
        "id": "28",
        "name": "未命名线条",
        "corridorType": null,
        "remark": "",
        "createdAt": 1785520691,
        "updatedAt": 1785568641
      },
      "geometry": {
        "type": "LineString",
        "coordinates": [
          [
            113.713400415,
            34.632785514
          ],
          [
            113.718890842,
            34.609983854
          ],
          [
            113.715155338,
            34.587240024
          ],
          [
            113.70924457,
            34.562529794
          ],
          [
            113.70384716,
            34.555822459
          ],
          [
            113.703726392,
            34.544106516
          ],
          [
            113.70342272,
            34.512384487
          ],
          [
            113.705642287,
            34.494789668
          ],
          [
            113.710791073,
            34.466596798
          ],
          [
            113.713556506,
            34.440399796
          ],
          [
            113.717063277,
            34.395904795
          ],
          [
            113.733730638,
            34.298511359
          ],
          [
            113.769003961,
            34.253347704
          ],
          [
            113.780992914,
            34.200206109
          ],
          [
            113.807453686,
            34.155510045
          ],
          [
            113.830858268,
            34.100840447
          ]
        ]
      }
    },
    {
      "type": "Feature",
      "properties": {
        "id": "29",
        "name": "未命名线条",
        "corridorType": null,
        "remark": "",
        "createdAt": 1785522587,
        "updatedAt": 1785522617
      },
      "geometry": {
        "type": "LineString",
        "coordinates": [
          [
            115.560656959,
            34.40231366
          ],
          [
            115.406335027,
            34.424743669
          ],
          [
            115.300649548,
            34.445519732
          ],
          [
            115.196558247,
            34.440129611
          ],
          [
            115.091767198,
            34.452287072
          ],
          [
            115.045893708,
            34.446441041
          ],
          [
            115.005125779,
            34.433576588
          ],
          [
            114.899634855,
            34.449008033
          ],
          [
            114.776422861,
            34.452014686
          ],
          [
            114.644551279,
            34.442241083
          ],
          [
            114.559643558,
            34.429980056
          ],
          [
            114.483648296,
            34.46108861
          ],
          [
            114.428190131,
            34.473541409
          ]
        ]
      }
    },
    {
      "type": "Feature",
      "properties": {
        "id": "30",
        "name": "未命名线条",
        "corridorType": null,
        "remark": "",
        "createdAt": 1785560326,
        "updatedAt": 1785560326
      },
      "geometry": {
        "type": "LineString",
        "coordinates": [
          [
            111.862206425,
            34.658804916
          ],
          [
            111.998379948,
            34.541516594
          ],
          [
            112.136941446,
            34.554167647
          ],
          [
            112.295270068,
            34.558883983
          ],
          [
            112.433838937,
            34.631549691
          ]
        ]
      }
    },
    {
      "type": "Feature",
      "properties": {
        "id": "31",
        "name": "未命名线条",
        "corridorType": null,
        "remark": "",
        "createdAt": 1785560337,
        "updatedAt": 1785560337
      },
      "geometry": {
        "type": "LineString",
        "coordinates": [
          [
            112.409192679,
            34.748940938
          ],
          [
            112.422658203,
            34.656943721
          ],
          [
            112.503031242,
            34.62459954
          ],
          [
            112.672673263,
            34.616077836
          ],
          [
            112.748122947,
            34.634375677
          ]
        ]
      }
    },
    {
      "type": "Feature",
      "properties": {
        "id": "32",
        "name": "未命名线条",
        "corridorType": null,
        "remark": "",
        "createdAt": 1785560492,
        "updatedAt": 1785560654
      },
      "geometry": {
        "type": "LineString",
        "coordinates": [
          [
            115.462069348,
            32.182027842
          ],
          [
            115.438886157,
            32.2165329
          ],
          [
            115.398838395,
            32.246365417
          ],
          [
            115.39316435,
            32.297448839
          ],
          [
            115.380691836,
            32.375026373
          ],
          [
            115.382536035,
            32.420836647
          ],
          [
            115.393483231,
            32.461567447
          ],
          [
            115.392025125,
            32.49790792
          ],
          [
            115.314535737,
            32.543227389
          ],
          [
            115.247316027,
            32.546298768
          ],
          [
            115.183002038,
            32.580412895
          ],
          [
            115.1374546,
            32.639180386
          ],
          [
            115.125328149,
            32.655583107
          ],
          [
            115.072294371,
            32.67623244
          ],
          [
            114.990362543,
            32.697292829
          ],
          [
            114.800370673,
            32.821422704
          ],
          [
            114.723656813,
            32.860398796
          ],
          [
            114.685454338,
            32.891329727
          ],
          [
            114.6539547,
            32.92742261
          ],
          [
            114.582903108,
            32.938638807
          ],
          [
            114.562534679,
            32.971635606
          ],
          [
            114.505874238,
            32.991127044
          ],
          [
            114.435948748,
            32.995012384
          ],
          [
            114.376803887,
            32.975966568
          ],
          [
            114.291630273,
            32.973228594
          ],
          [
            114.271977943,
            32.951570972
          ],
          [
            114.261523205,
            32.94106447
          ],
          [
            114.247774953,
            32.938375423
          ],
          [
            114.229595626,
            32.944446688
          ],
          [
            114.213769558,
            32.951880849
          ],
          [
            114.19408567,
            32.965213
          ],
          [
            114.168980756,
            32.969241907
          ],
          [
            114.135876342,
            32.970985891
          ],
          [
            114.112247551,
            32.968845387
          ],
          [
            114.084990748,
            32.953096768
          ],
          [
            114.056626869,
            32.950278239
          ],
          [
            113.929366083,
            32.946457836
          ],
          [
            113.838321675,
            32.934886217
          ],
          [
            113.813578015,
            32.952164241
          ],
          [
            113.808661897,
            32.99427718
          ],
          [
            113.78501714,
            32.995978222
          ],
          [
            113.658312322,
            32.995341829
          ],
          [
            113.552245073,
            33.026204459
          ],
          [
            113.454085243,
            33.033868588
          ],
          [
            113.429290765,
            33.093701665
          ],
          [
            113.427171965,
            33.11956799
          ],
          [
            113.428424588,
            33.148802592
          ],
          [
            113.427651364,
            33.187354878
          ],
          [
            113.432730453,
            33.219741675
          ],
          [
            113.463064512,
            33.252102186
          ],
          [
            113.488784783,
            33.282164954
          ],
          [
            113.543755721,
            33.3121739
          ],
          [
            113.579340968,
            33.351502073
          ],
          [
            113.595258536,
            33.418983903
          ],
          [
            113.583616209,
            33.446831837
          ],
          [
            113.610500277,
            33.486518509
          ],
          [
            113.61542734,
            33.521322521
          ],
          [
            113.625742018,
            33.554000495
          ],
          [
            113.662350247,
            33.594192913
          ],
          [
            113.701947498,
            33.634628339
          ],
          [
            113.749344999,
            33.647731683
          ],
          [
            113.770036362,
            33.657292764
          ],
          [
            113.777112639,
            33.666703336
          ]
        ]
      }
    },
    {
      "type": "Feature",
      "properties": {
        "id": "33",
        "name": "未命名线条",
        "corridorType": null,
        "remark": "",
        "createdAt": 1785560725,
        "updatedAt": 1785560751
      },
      "geometry": {
        "type": "LineString",
        "coordinates": [
          [
            116.390383127,
            33.937692778
          ],
          [
            116.213960126,
            33.948985448
          ],
          [
            116.033920423,
            33.949459702
          ],
          [
            115.840438575,
            33.902092302
          ],
          [
            115.618418826,
            33.868547268
          ],
          [
            115.337351728,
            33.867577202
          ],
          [
            115.191222422,
            33.872485519
          ],
          [
            115.121523219,
            33.878186665
          ],
          [
            115.063465919,
            33.895268692
          ],
          [
            115.013025249,
            33.938840283
          ],
          [
            114.941042304,
            33.964761099
          ],
          [
            114.858170189,
            34.026194414
          ]
        ]
      }
    },
    {
      "type": "Feature",
      "properties": {
        "id": "34",
        "name": "未命名线条",
        "corridorType": null,
        "remark": "",
        "createdAt": 1785569737,
        "updatedAt": 1785569894
      },
      "geometry": {
        "type": "LineString",
        "coordinates": [
          [
            115.336499009,
            33.287398369
          ],
          [
            115.184650994,
            33.321617473
          ],
          [
            115.048826759,
            33.376293781
          ],
          [
            114.930600252,
            33.425473088
          ],
          [
            114.883146014,
            33.472235887
          ],
          [
            114.842646276,
            33.54454904
          ],
          [
            114.700775855,
            33.597138681
          ],
          [
            114.608592323,
            33.632979243
          ],
          [
            114.565118028,
            33.682445546
          ],
          [
            114.531163703,
            33.768526672
          ],
          [
            114.476595489,
            33.83789609
          ],
          [
            114.414004986,
            33.894623077
          ],
          [
            114.282306301,
            33.986987738
          ],
          [
            114.141017296,
            34.0965322
          ]
        ]
      }
    },
    {
      "type": "Feature",
      "properties": {
        "id": "35",
        "name": "未命名线条",
        "corridorType": null,
        "remark": "",
        "createdAt": 1785569835,
        "updatedAt": 1785569888
      },
      "geometry": {
        "type": "LineString",
        "coordinates": [
          [
            114.846929104,
            34.090079822
          ],
          [
            114.739200059,
            34.114038684
          ],
          [
            114.593620269,
            34.110974825
          ],
          [
            114.328357832,
            34.093890336
          ],
          [
            114.173547515,
            34.102447466
          ],
          [
            113.991764019,
            34.075623251
          ],
          [
            113.912431484,
            34.066845858
          ],
          [
            113.826027829,
            34.071111467
          ],
          [
            113.796604967,
            34.093687103
          ],
          [
            113.766499492,
            34.116324766
          ],
          [
            113.713891128,
            34.161415721
          ],
          [
            113.577668836,
            34.249823555
          ],
          [
            113.52955867,
            34.264759809
          ],
          [
            113.455517157,
            34.280287326
          ],
          [
            113.385891251,
            34.316792629
          ],
          [
            113.315394728,
            34.360317761
          ],
          [
            113.2531497,
            34.39679752
          ],
          [
            113.181841272,
            34.428852925
          ],
          [
            113.136101684,
            34.433902357
          ],
          [
            113.090874266,
            34.431087236
          ],
          [
            113.070881099,
            34.428806603
          ],
          [
            113.055275232,
            34.429854245
          ],
          [
            113.02801237,
            34.439203001
          ],
          [
            113.019573865,
            34.455369296
          ],
          [
            113.017830183,
            34.471379158
          ],
          [
            113.020318346,
            34.483975225
          ],
          [
            113.015108364,
            34.500522282
          ],
          [
            112.989987052,
            34.530876644
          ],
          [
            112.906109968,
            34.575036794
          ],
          [
            112.808299713,
            34.616871421
          ],
          [
            112.721332688,
            34.678932846
          ],
          [
            112.674085053,
            34.774602942
          ],
          [
            112.6507456,
            34.896883924
          ],
          [
            112.650112476,
            34.994477421
          ],
          [
            112.644620525,
            35.080161286
          ]
        ]
      }
    },
    {
      "type": "Feature",
      "properties": {
        "id": "36",
        "name": "未命名线条",
        "corridorType": null,
        "remark": "",
        "createdAt": 1785569936,
        "updatedAt": 1785569936
      },
      "geometry": {
        "type": "LineString",
        "coordinates": [
          [
            112.905354874,
            34.104262737
          ],
          [
            112.907899694,
            34.018818064
          ],
          [
            112.84847504,
            33.94839024
          ],
          [
            112.817744785,
            33.887565643
          ],
          [
            112.827371654,
            33.818493722
          ],
          [
            112.947114752,
            33.739967516
          ],
          [
            113.145753482,
            33.664572319
          ],
          [
            113.280368261,
            33.666550861
          ],
          [
            113.386704501,
            33.639498231
          ],
          [
            113.534893723,
            33.624811024
          ],
          [
            113.67032781,
            33.634619999
          ],
          [
            113.778327494,
            33.66359078
          ]
        ]
      }
    },
    {
      "type": "Feature",
      "properties": {
        "id": "37",
        "name": "未命名线条",
        "corridorType": null,
        "remark": "",
        "createdAt": 1785569950,
        "updatedAt": 1785569950
      },
      "geometry": {
        "type": "LineString",
        "coordinates": [
          [
            113.296479588,
            33.485198726
          ],
          [
            113.426687483,
            33.411295545
          ],
          [
            113.576627045,
            33.40012432
          ],
          [
            113.671666767,
            33.449332215
          ],
          [
            113.802681556,
            33.475621278
          ],
          [
            113.93235566,
            33.523120193
          ],
          [
            113.988534117,
            33.55883201
          ]
        ]
      }
    },
    {
      "type": "Feature",
      "properties": {
        "id": "38",
        "name": "未命名线条",
        "corridorType": null,
        "remark": "",
        "createdAt": 1785569977,
        "updatedAt": 1785569977
      },
      "geometry": {
        "type": "LineString",
        "coordinates": [
          [
            115.087314837,
            33.3615883
          ],
          [
            115.092658057,
            33.417096965
          ],
          [
            115.08108435,
            33.474291637
          ],
          [
            115.088417796,
            33.544466401
          ],
          [
            115.121379085,
            33.617470379
          ]
        ]
      }
    },
    {
      "type": "Feature",
      "properties": {
        "id": "39",
        "name": "未命名线条",
        "corridorType": null,
        "remark": "",
        "createdAt": 1785569989,
        "updatedAt": 1785569989
      },
      "geometry": {
        "type": "LineString",
        "coordinates": [
          [
            112.498048162,
            34.473506321
          ],
          [
            112.335319926,
            34.354467498
          ],
          [
            112.203692999,
            34.234859614
          ]
        ]
      }
    },
    {
      "type": "Feature",
      "properties": {
        "id": "40",
        "name": "未命名线条",
        "corridorType": null,
        "remark": "",
        "createdAt": 1785570028,
        "updatedAt": 1785570028
      },
      "geometry": {
        "type": "LineString",
        "coordinates": [
          [
            113.395389369,
            35.482408422
          ],
          [
            113.439641211,
            35.379559834
          ],
          [
            113.42312334,
            35.328299562
          ],
          [
            113.364550377,
            35.273036271
          ],
          [
            113.25032993,
            35.249023796
          ],
          [
            113.167513505,
            35.227048888
          ],
          [
            113.120024624,
            35.152881189
          ],
          [
            113.114590836,
            35.068416205
          ],
          [
            113.080071231,
            34.923330831
          ],
          [
            113.078751068,
            34.82907975
          ],
          [
            113.148904496,
            34.816018351
          ],
          [
            113.351523014,
            34.909994259
          ]
        ]
      }
    },
    {
      "type": "Feature",
      "properties": {
        "id": "41",
        "name": "未命名线条",
        "corridorType": null,
        "remark": "",
        "createdAt": 1785570048,
        "updatedAt": 1785570095
      },
      "geometry": {
        "type": "LineString",
        "coordinates": [
          [
            112.925479923,
            33.767980694
          ],
          [
            113.072102879,
            33.857469434
          ],
          [
            113.165779192,
            33.932249178
          ],
          [
            113.344578972,
            34.012830189
          ],
          [
            113.450047936,
            34.152050915
          ]
        ]
      }
    },
    {
      "type": "Feature",
      "properties": {
        "id": "42",
        "name": "未命名线条",
        "corridorType": null,
        "remark": "",
        "createdAt": 1785570058,
        "updatedAt": 1785570092
      },
      "geometry": {
        "type": "LineString",
        "coordinates": [
          [
            113.317126943,
            34.365158115
          ],
          [
            113.354913573,
            34.310206729
          ],
          [
            113.360274852,
            34.253341226
          ],
          [
            113.38474216,
            34.203268736
          ],
          [
            113.434327624,
            34.165532361
          ],
          [
            113.444726007,
            34.158006931
          ],
          [
            113.455124389,
            34.150480831
          ],
          [
            113.465372687,
            34.132432142
          ],
          [
            113.466313515,
            34.063984555
          ],
          [
            113.463134862,
            33.989947009
          ],
          [
            113.459819376,
            33.828207765
          ]
        ]
      }
    },
    {
      "type": "Feature",
      "properties": {
        "id": "43",
        "name": "未命名线条",
        "corridorType": null,
        "remark": "",
        "createdAt": 1785570115,
        "updatedAt": 1785570115
      },
      "geometry": {
        "type": "LineString",
        "coordinates": [
          [
            111.153258069,
            33.131315382
          ],
          [
            111.203067452,
            33.140282064
          ],
          [
            111.279153441,
            33.11629227
          ],
          [
            111.338288275,
            33.087889363
          ],
          [
            111.369489517,
            33.109973679
          ],
          [
            111.390339045,
            33.177144747
          ],
          [
            111.421761218,
            33.197077608
          ],
          [
            111.50174558,
            33.182155228
          ],
          [
            111.554202579,
            33.18089667
          ],
          [
            111.595327926,
            33.202408968
          ],
          [
            111.633851981,
            33.231165283
          ]
        ]
      }
    },
    {
      "type": "Feature",
      "properties": {
        "id": "44",
        "name": "未命名线条",
        "corridorType": null,
        "remark": "",
        "createdAt": 1785570126,
        "updatedAt": 1785570126
      },
      "geometry": {
        "type": "LineString",
        "coordinates": [
          [
            111.764146636,
            32.566845609
          ],
          [
            111.852415933,
            32.592197333
          ],
          [
            111.932168673,
            32.651871521
          ],
          [
            111.984187372,
            32.674805614
          ],
          [
            112.071359138,
            32.67208203
          ],
          [
            112.117508896,
            32.704168856
          ]
        ]
      }
    },
    {
      "type": "Feature",
      "properties": {
        "id": "45",
        "name": "未命名线条",
        "corridorType": null,
        "remark": "",
        "createdAt": 1785570149,
        "updatedAt": 1785570149
      },
      "geometry": {
        "type": "LineString",
        "coordinates": [
          [
            112.438177398,
            32.99846385
          ],
          [
            112.375643068,
            32.95718787
          ],
          [
            112.294247594,
            32.905957688
          ],
          [
            112.248710743,
            32.873348022
          ],
          [
            112.219549229,
            32.811248022
          ],
          [
            112.165075338,
            32.768383572
          ],
          [
            112.112892722,
            32.733199468
          ],
          [
            112.12010507,
            32.699290909
          ],
          [
            112.162858895,
            32.658886631
          ],
          [
            112.221298864,
            32.614730279
          ],
          [
            112.288625984,
            32.582470224
          ],
          [
            112.422539035,
            32.543040517
          ],
          [
            112.524427695,
            32.547194832
          ],
          [
            112.602872663,
            32.58857729
          ],
          [
            112.697837612,
            32.676237125
          ],
          [
            112.773820262,
            32.746516517
          ]
        ]
      }
    },
    {
      "type": "Feature",
      "properties": {
        "id": "46",
        "name": "未命名线条",
        "corridorType": null,
        "remark": "",
        "createdAt": 1785570159,
        "updatedAt": 1785570159
      },
      "geometry": {
        "type": "LineString",
        "coordinates": [
          [
            112.278163936,
            32.585088943
          ],
          [
            112.277796904,
            32.524949629
          ],
          [
            112.260318365,
            32.481623057
          ],
          [
            112.229188391,
            32.419311887
          ],
          [
            112.217204634,
            32.387727903
          ]
        ]
      }
    },
    {
      "type": "Feature",
      "properties": {
        "id": "47",
        "name": "未命名线条",
        "corridorType": null,
        "remark": "",
        "createdAt": 1785570186,
        "updatedAt": 1785570191
      },
      "geometry": {
        "type": "LineString",
        "coordinates": [
          [
            113.602279438,
            35.782398803
          ],
          [
            113.718625124,
            35.76888741
          ],
          [
            113.799441179,
            35.747204689
          ],
          [
            113.81331358,
            35.700730357
          ],
          [
            113.78610837,
            35.630792614
          ],
          [
            113.770425885,
            35.554588135
          ],
          [
            113.786927567,
            35.50953502
          ],
          [
            113.841308556,
            35.48243349
          ],
          [
            113.874066651,
            35.425169146
          ],
          [
            113.874910375,
            35.338401947
          ]
        ]
      }
    },
    {
      "type": "Feature",
      "properties": {
        "id": "8",
        "name": "G106",
        "corridorType": null,
        "remark": "",
        "createdAt": 1785510869,
        "updatedAt": 1785556961
      },
      "geometry": {
        "type": "LineString",
        "coordinates": [
          [
            115.155798434,
            31.613202783
          ],
          [
            115.12155748,
            31.703154667
          ],
          [
            115.11645622,
            31.71792484
          ],
          [
            115.1005284,
            31.740377436
          ],
          [
            115.087655247,
            31.796330177
          ],
          [
            115.105721531,
            31.831753705
          ],
          [
            115.111379047,
            31.851514867
          ],
          [
            115.11129151,
            31.877394873
          ],
          [
            115.102204851,
            31.967414761
          ],
          [
            115.075175251,
            32.051196507
          ],
          [
            115.069541187,
            32.0966286
          ],
          [
            115.046263511,
            32.190243828
          ],
          [
            114.987929857,
            32.557861665
          ],
          [
            114.981544208,
            32.704860633
          ],
          [
            114.94230051,
            32.817934154
          ],
          [
            114.928750832,
            32.936268041
          ],
          [
            114.848614743,
            33.106060578
          ],
          [
            114.8263751,
            33.294392575
          ],
          [
            114.842550285,
            33.435487897
          ],
          [
            114.860345097,
            33.793201174
          ],
          [
            114.846591437,
            34.10988729
          ],
          [
            114.832261863,
            34.323101979
          ],
          [
            114.79777918,
            34.380721803
          ],
          [
            114.784333674,
            34.520151757
          ],
          [
            114.794798021,
            34.606568666
          ],
          [
            114.798741207,
            34.696157759
          ],
          [
            114.804934461,
            34.775608345
          ],
          [
            114.788339474,
            34.783750842
          ],
          [
            114.771744487,
            34.791892535
          ],
          [
            114.770852413,
            34.829450214
          ]
        ]
      }
    },
    {
      "type": "Feature",
      "properties": {
        "id": "9",
        "name": "107",
        "corridorType": null,
        "remark": "",
        "createdAt": 1785511153,
        "updatedAt": 1785559730
      },
      "geometry": {
        "type": "LineString",
        "coordinates": [
          [
            114.014668583,
            31.774755879
          ],
          [
            114.08853191,
            31.878770114
          ],
          [
            114.088563042,
            31.940916297
          ],
          [
            114.101976565,
            31.984549436
          ],
          [
            114.148941687,
            32.00057273
          ],
          [
            114.219061714,
            31.99728763
          ],
          [
            114.23461313,
            32.003381781
          ],
          [
            114.263081164,
            32.018286371
          ],
          [
            114.281194963,
            32.040061977
          ],
          [
            114.285440976,
            32.065958995
          ],
          [
            114.29876754,
            32.138239313
          ],
          [
            114.294397675,
            32.204820935
          ],
          [
            114.298183844,
            32.228547602
          ],
          [
            114.292273461,
            32.251554593
          ],
          [
            114.270471305,
            32.288674848
          ],
          [
            114.252148755,
            32.302681566
          ],
          [
            114.240684036,
            32.314366628
          ],
          [
            114.219164304,
            32.32734237
          ],
          [
            114.198892547,
            32.348810171
          ],
          [
            114.154412056,
            32.378430919
          ],
          [
            114.12332597,
            32.385924487
          ],
          [
            114.107200142,
            32.387060642
          ],
          [
            114.092239884,
            32.393417433
          ],
          [
            114.072426764,
            32.406886231
          ],
          [
            114.043584322,
            32.42433461
          ],
          [
            114.030269053,
            32.451874283
          ],
          [
            114.027770001,
            32.474949471
          ],
          [
            114.029115738,
            32.494878645
          ],
          [
            114.016250847,
            32.51845062
          ],
          [
            113.98530371,
            32.561495697
          ],
          [
            113.969522975,
            32.586102067
          ],
          [
            113.968862059,
            32.609702093
          ],
          [
            113.970142938,
            32.647280642
          ],
          [
            113.980452343,
            32.690139914
          ],
          [
            113.990321488,
            32.711958923
          ],
          [
            114.002342606,
            32.732936012
          ],
          [
            114.025669127,
            32.77900349
          ],
          [
            114.028090248,
            32.805992829
          ],
          [
            114.027336166,
            32.83706683
          ],
          [
            114.0226035,
            32.862869746
          ],
          [
            114.025889281,
            32.88168163
          ],
          [
            114.024731825,
            32.909911013
          ],
          [
            114.024751649,
            32.931520094
          ],
          [
            114.022858052,
            32.947167142
          ],
          [
            114.009172295,
            32.949778928
          ],
          [
            113.988946968,
            32.953219714
          ],
          [
            113.981236186,
            33.04232257
          ],
          [
            113.983061338,
            33.087129368
          ],
          [
            113.978092284,
            33.108377717
          ],
          [
            113.978549575,
            33.131325628
          ],
          [
            113.991142877,
            33.225458343
          ],
          [
            114.004276255,
            33.274339185
          ],
          [
            114.006562827,
            33.319825956
          ],
          [
            114.007861026,
            33.360207724
          ],
          [
            113.980798768,
            33.388625319
          ],
          [
            113.971315717,
            33.415764144
          ],
          [
            113.976079316,
            33.490925103
          ],
          [
            113.996920969,
            33.547363303
          ],
          [
            113.987240471,
            33.567535601
          ],
          [
            113.9788866,
            33.585591979
          ],
          [
            113.983409664,
            33.623720527
          ],
          [
            113.987520387,
            33.638523056
          ],
          [
            113.984203421,
            33.658712323
          ],
          [
            113.983138008,
            33.675499272
          ],
          [
            113.977442274,
            33.69300924
          ],
          [
            113.970140338,
            33.709342926
          ],
          [
            113.965639477,
            33.73000952
          ],
          [
            113.955137469,
            33.778446421
          ],
          [
            113.926781082,
            33.852894186
          ],
          [
            113.892500833,
            33.934853807
          ],
          [
            113.897035792,
            33.981369117
          ],
          [
            113.956135361,
            33.992972602
          ],
          [
            113.947726094,
            34.109672334
          ],
          [
            113.946835445,
            34.141591463
          ],
          [
            113.936129406,
            34.166951469
          ],
          [
            113.917506071,
            34.228744131
          ],
          [
            113.899890378,
            34.267622976
          ],
          [
            113.905226229,
            34.305606465
          ],
          [
            113.916907813,
            34.34116851
          ],
          [
            113.922518016,
            34.378015302
          ],
          [
            113.919401578,
            34.417901355
          ],
          [
            113.92847107,
            34.451596807
          ],
          [
            113.932802676,
            34.470596063
          ],
          [
            113.931447597,
            34.488363274
          ],
          [
            113.934424123,
            34.525113541
          ],
          [
            113.931483388,
            34.604546716
          ],
          [
            113.919789555,
            34.626452381
          ],
          [
            113.911946978,
            34.648093424
          ],
          [
            113.909986378,
            34.692132423
          ],
          [
            113.9155561,
            34.752381057
          ],
          [
            113.916577875,
            34.785625624
          ],
          [
            113.917480268,
            34.800625265
          ],
          [
            113.921125822,
            34.812585769
          ],
          [
            113.93115274,
            34.839608125
          ],
          [
            113.93729493,
            34.849244512
          ],
          [
            113.944850593,
            34.85375969
          ],
          [
            113.977527774,
            34.881009479
          ],
          [
            113.989304607,
            34.896442378
          ],
          [
            114.00271025,
            34.904971433
          ],
          [
            114.012541418,
            34.909968951
          ],
          [
            114.02312748,
            34.918299157
          ],
          [
            114.027306398,
            34.925310024
          ],
          [
            114.019427643,
            34.99234035
          ],
          [
            114.021786714,
            35.007639362
          ],
          [
            114.027364477,
            35.021519367
          ],
          [
            114.039529188,
            35.052111938
          ],
          [
            114.042895318,
            35.064316226
          ],
          [
            114.050906628,
            35.077515471
          ],
          [
            114.053191171,
            35.08546776
          ],
          [
            114.05341766,
            35.094208821
          ],
          [
            114.050709196,
            35.111909164
          ],
          [
            114.052004898,
            35.125845903
          ],
          [
            114.06873442,
            35.1743572
          ],
          [
            114.101791054,
            35.201885543
          ],
          [
            114.127663867,
            35.220690144
          ],
          [
            114.133472324,
            35.232009677
          ],
          [
            114.148859781,
            35.274259842
          ],
          [
            114.155609065,
            35.295701077
          ],
          [
            114.159308239,
            35.317378783
          ],
          [
            114.174505566,
            35.462199879
          ],
          [
            114.21586539,
            35.494829863
          ],
          [
            114.262754115,
            35.523772304
          ],
          [
            114.294362433,
            35.564895885
          ],
          [
            114.329415384,
            35.600587132
          ],
          [
            114.340070673,
            35.619502093
          ],
          [
            114.356829164,
            35.641758394
          ],
          [
            114.37356151,
            35.659496127
          ],
          [
            114.386953077,
            35.669896699
          ],
          [
            114.391882115,
            35.679435985
          ],
          [
            114.400785533,
            35.701559717
          ],
          [
            114.404567969,
            35.724864362
          ],
          [
            114.414900475,
            35.74759246
          ],
          [
            114.432638275,
            35.766931903
          ],
          [
            114.548491549,
            35.966330705
          ],
          [
            114.580992744,
            36.027017933
          ],
          [
            114.594288144,
            36.089668169
          ]
        ]
      }
    }
  ]
}
